QIANFAN-17              
1 60395U 24140S   25300.29528368  .00000051  00000+0  60424-4 0  9992
2 60395  88.9743 304.2462 0014464 348.0285  12.0520 13.50970581 61864
QIANFAN-18              
1 60396U 24140T   25300.27468468  .00000045  00000+0  50732-4 0  9999
2 60396  88.9735 303.7852 0013205 330.2410  29.7989 13.50970727 61257
QIANFAN-19              
1 61552U 24185A   25300.24156029  .00000881  00000+0  45441-3 0  9995
2 61552  88.9784  83.2630 0009100  94.5836 265.6391 14.14220260 63094
QIANFAN-20              
1 61553U 24185B   25300.23629738  .00000668  00000+0  37926-3 0  9999
2 61553  88.9782  83.5406 0007470 124.0589 236.1305 14.08768858 62943
QIANFAN-21              
1 61554U 24185C   25300.25542471  .00001043  00000+0  46113-3 0  9996
2 61554  88.9701  82.4176 0011848 146.1136 214.0815 14.22507303 63364
QIANFAN-22              
1 61555U 24185D   25300.23408291  .00000317  00000+0  26310-3 0  9996
2 61555  88.9766  84.3357 0008152 128.6549 231.5353 13.86277731 62497
QIANFAN-23              
1 61556U 24185E   25300.28249805  .00000875  00000+0  43506-3 0  9991
2 61556  88.9777  83.0898 0009848 103.8883 256.3401 14.16218601 63175
QIANFAN-24              
1 61557U 24185F   25300.22711122  .00000884  00000+0  38100-3 0  9996
2 61557  88.9758  82.5772 0011643  90.9676 269.2851 14.23714031 63406
